{"type": "FeatureCollection", "features": [ {"type": "Feature", "properties": {"norad_id": 30306, "name": "FENGYUN 1C DEB", "group": "fengyun-1c-debris", "lat": 41.45209649043964, "lon": -129.60856920254676, "alt_km": 874.7989032746773, "timestamp": "2025-12-27T21:25:02.789497+00:00", "meta": {"OBJECT_NAME": "FENGYUN 1C DEB", "OBJECT_ID": "1999-025ZT", "EPOCH": "2025-12-25T20:00:41.400000", "MEAN_MOTION": 14.28266969, "ECCENTRICITY": 0.0112871, "INCLINATION": 98.5854, "RA_OF_ASC_NODE": 40.6987, "ARG_OF_PERICENTER": 318.7976, "MEAN_ANOMALY": 40.4726, "EPHEMERIS_TYPE": 0, "CLASSIFICATION_TYPE": "U", "NORAD_CAT_ID": 30306, "ELEMENT_SET_NO": 999, "REV_AT_EPOCH": 97868, "BSTAR": 0.00095479, "MEAN_MOTION_DOT": 2.505e-05, "MEAN_MOTION_DDOT": 0}, "tle": {"line1": "1 30306U 99025ZT  25359.83381250  .00002505  00000+0  95479-3 0  9999", "line2": "2 30306  98.5854  40.6987 0112871 318.7976  40.4726 14.28266969978682"}}, "geometry": {"type": "Point", "coordinates": [-129.60856920254676, 41.45209649043964]}}, {"type": "Feature", "properties": {"norad_id": 30309, "name": "FENGYUN 1C DEB", "group": "fengyun-1c-debris", "lat": -47.45382679767989, "lon": 69.21583832275344, "alt_km": 987.6298404809522, "timestamp": "2025-12-27T21:25:02.789507+00:00", "meta": {"OBJECT_NAME": "FENGYUN 1C DEB", "OBJECT_ID": "1999-025ZW", "EPOCH": "2025-12-27T02:41:52.162656", "MEAN_MOTION": 13.93531675, "ECCENTRICITY": 0.00938259, "INCLINATION": 99.2242, "RA_OF_ASC_NODE": 58.2401, "ARG_OF_PERICENTER": 153.0264, "MEAN_ANOMALY": 207.5817, "EPHEMERIS_TYPE": 0, "CLASSIFICATION_TYPE": "U", "NORAD_CAT_ID": 30309, "ELEMENT_SET_NO": 999, "REV_AT_EPOCH": 96233, "BSTAR": 0.00030367219, "MEAN_MOTION_DOT": 3.69e-06, "MEAN_MOTION_DDOT": 0}, "tle": {"line1": "1 30309U 99025ZW  25361.11240929  .00000369  00000+0  30367-3 0  9994", "line2": "2 30309  99.2242  58.2401 0093825 153.0264 207.5817 13.93531675962339"}}, "geometry": {"type": "Point", "coordinates": [69.21583832275344, -47.45382679767989]}}, {"type": "Feature", "properties": {"norad_id": 30310, "name": "FENGYUN 1C DEB", "group": "fengyun-1c-debris", "lat": -37.91636001476337, "lon": 27.769397189218346, "alt_km": 698.3275834596634, "timestamp": "2025-12-27T21:25:02.789518+00:00", "meta": {"OBJECT_NAME": "FENGYUN 1C DEB", "OBJECT_ID": "1999-025ZX", "EPOCH": "2025-12-26T20:01:03.883872", "MEAN_MOTION": 14.08426522, "ECCENTRICITY": 0.02403078, "INCLINATION": 98.6642, "RA_OF_ASC_NODE": 19.9306, "ARG_OF_PERICENTER": 317.4778, "MEAN_ANOMALY": 40.7997, "EPHEMERIS_TYPE": 0, "CLASSIFICATION_TYPE": "U", "NORAD_CAT_ID": 30310, "ELEMENT_SET_NO": 999, "REV_AT_EPOCH": 96930, "BSTAR": 0.00070957089, "MEAN_MOTION_DOT": 1.54e-05, "MEAN_MOTION_DDOT": 0}, "tle": {"line1": "1 30310U 99025ZX  25360.83407273  .00001540  00000+0  70957-3 0  9992", "line2": "2 30310  98.6642  19.9306 0240307 317.4778  40.7997 14.08426522969302"}}, "geometry": {"type": "Point", "coordinates": [27.769397189218346, -37.91636001476337]}}, {"type": "Feature", "properties": {"norad_id": 30311, "name": "FENGYUN 1C DEB", "group": "fengyun-1c-debris", "lat": -58.29036025847584, "lon": 112.12118578283373, "alt_km": 1075.712931377956, "timestamp": "2025-12-27T21:25:02.789528+00:00", "meta": {"OBJECT_NAME": "FENGYUN 1C DEB", "OBJECT_ID": "1999-025ZY", "EPOCH": "2025-12-27T06:01:48.980640", "MEAN_MOTION": 13.77902319, "ECCENTRICITY": 0.0165708, "INCLINATION": 99.1386, "RA_OF_ASC_NODE": 96.4028, "ARG_OF_PERICENTER": 158.6497, "MEAN_ANOMALY": 202.1674, "EPHEMERIS_TYPE": 0, "CLASSIFICATION_TYPE": "U", "NORAD_CAT_ID": 30311, "ELEMENT_SET_NO": 999, "REV_AT_EPOCH": 95160, "BSTAR": 0.00043882, "MEAN_MOTION_DOT": 4.45e-06, "MEAN_MOTION_DDOT": 0}, "tle": {"line1": "1 30311U 99025ZY  25361.25126135  .00000445  00000+0  43882-3 0  9995", "line2": "2 30311  99.1386  96.4028 0165708 158.6497 202.1674 13.77902319951607"}}, "geometry": {"type": "Point", "coordinates": [112.12118578283373, -58.29036025847584]}}, {"type": "Feature", "properties": {"norad_id": 30312, "name": "FENGYUN 1C DEB", "group": "fengyun-1c-debris", "lat": 37.500256242570764, "lon": -91.2718305598652, "alt_km": 728.306189217571, "timestamp": "2025-12-27T21:25:02.789539+00:00", "meta": {"OBJECT_NAME": "FENGYUN 1C DEB", "OBJECT_ID": "1999-025ZZ", "EPOCH": "2025-12-27T04:26:21.477120", "MEAN_MOTION": 14.46071416, "ECCENTRICITY": 0.00119008, "INCLINATION": 98.8665, "RA_OF_ASC_NODE": 81.1095, "ARG_OF_PERICENTER": 173.1392, "MEAN_ANOMALY": 248.1607, "EPHEMERIS_TYPE": 0, "CLASSIFICATION_TYPE": "U", "NORAD_CAT_ID": 30312, "ELEMENT_SET_NO": 999, "REV_AT_EPOCH": 98129, "BSTAR": 0.0029916838, "MEAN_MOTION_DOT": 0.0001065, "MEAN_MOTION_DDOT": 0}, "tle": {"line1": "1 30312U 99025ZZ  25361.18497080  .00010650  00000+0  29917-2 0  9999", "line2": "2 30312  98.8665  81.1095 0011900 173.1392 248.1607 14.46071416981295"}}, "geometry": {"type": "Point", "coordinates": [-91.2718305598652, 37.500256242570764]}}, {"type": "Feature", "properties": {"norad_id": 30313, "name": "FENGYUN 1C DEB", "group": "fengyun-1c-debris", "lat": -12.20582651545754, "lon": -93.69335997127477, "alt_km": 817.0065621058284, "timestamp": "2025-12-27T21:25:02.789549+00:00", "meta": {"OBJECT_NAME": "FENGYUN 1C DEB", "OBJECT_ID": "1999-025AAA", "EPOCH": "2025-12-27T12:09:55.454976", "MEAN_MOTION": 14.25569626, "ECCENTRICITY": 0.0057155, "INCLINATION": 98.874, "RA_OF_ASC_NODE": 87.8533, "ARG_OF_PERICENTER": 292.188, "MEAN_ANOMALY": 83.3974, "EPHEMERIS_TYPE": 0, "CLASSIFICATION_TYPE": "U", "NORAD_CAT_ID": 30313, "ELEMENT_SET_NO": 999, "REV_AT_EPOCH": 97300, "BSTAR": 0.0019274, "MEAN_MOTION_DOT": 4.596e-05, "MEAN_MOTION_DDOT": 0}, "tle": {"line1": "1 30313U 99025AAA 25361.50689184  .00004596  00000+0  19274-2 0  9991", "line2": "2 30313  98.8740  87.8533 0057155 292.1880  83.3974 14.25569626973004"}}, "geometry": {"type": "Point", "coordinates": [-93.69335997127477, -12.20582651545754]}}, {"type": "Feature", "properties": {"norad_id": 30314, "name": "FENGYUN 1C DEB", "group": "fengyun-1c-debris", "lat": -27.521982135037852, "lon": -164.05969923022752, "alt_km": 796.0871244606442, "timestamp": "2025-12-27T21:25:02.789559+00:00", "meta": {"OBJECT_NAME": "FENGYUN 1C DEB", "OBJECT_ID": "1999-025AAB", "EPOCH": "2025-12-26T18:07:39.298944", "MEAN_MOTION": 14.01240206, "ECCENTRICITY": 0.0142558, "INCLINATION": 98.3819, "RA_OF_ASC_NODE": 190.4897, "ARG_OF_PERICENTER": 318.2648, "MEAN_ANOMALY": 40.7714, "EPHEMERIS_TYPE": 0, "CLASSIFICATION_TYPE": "U", "NORAD_CAT_ID": 30314, "ELEMENT_SET_NO": 999, "REV_AT_EPOCH": 96305, "BSTAR": 0.0011492394, "MEAN_MOTION_DOT": 1.849e-05, "MEAN_MOTION_DDOT": 0}, "tle": {"line1": "1 30314U 99025AAB 25360.75531596  .00001849  00000+0  11492-2 0  9993", "line2": "2 30314  98.3819 190.4897 0142558 318.2648  40.7714 14.01240206963052"}}, "geometry": {"type": "Point", "coordinates": [-164.05969923022752, -27.521982135037852]}}, {"type": "Feature", "properties": {"norad_id": 30315, "name": "FENGYUN 1C DEB", "group": "fengyun-1c-debris", "lat": 29.720652639940475, "lon": 5.999247850048424, "alt_km": 819.944017082109, "timestamp": "2025-12-27T21:25:02.789570+00:00", "meta": {"OBJECT_NAME": "FENGYUN 1C DEB", "OBJECT_ID": "1999-025AAC", "EPOCH": "2025-12-26T23:25:04.785312", "MEAN_MOTION": 14.19085036, "ECCENTRICITY": 0.0034566, "INCLINATION": 98.6016, "RA_OF_ASC_NODE": 10.0666, "ARG_OF_PERICENTER": 318.8602, "MEAN_ANOMALY": 70.7297, "EPHEMERIS_TYPE": 0, "CLASSIFICATION_TYPE": "U", "NORAD_CAT_ID": 30315, "ELEMENT_SET_NO": 999, "REV_AT_EPOCH": 97909, "BSTAR": 0.00037577, "MEAN_MOTION_DOT": 7.47e-06, "MEAN_MOTION_DDOT": 0}, "tle": {"line1": "1 30315U 99025AAC 25360.97574983  .00000747  00000+0  37577-3 0  9994", "line2": "2 30315  98.6016  10.0666 0034566 318.8602  70.7297 14.19085036979098"}}, "geometry": {"type": "Point", "coordinates": [5.999247850048424, 29.720652639940475]}}, {"type": "Feature", "properties": {"norad_id": 30316, "name": "FENGYUN 1C DEB", "group": "fengyun-1c-debris", "lat": -54.302091159539856, "lon": 117.08538015050917, "alt_km": 695.0850710718787, "timestamp": "2025-12-27T21:25:02.789580+00:00", "meta": {"OBJECT_NAME": "FENGYUN 1C DEB", "OBJECT_ID": "1999-025AAD", "EPOCH": "2025-12-27T05:10:46.803072", "MEAN_MOTION": 14.56322214, "ECCENTRICITY": 0.0035184, "INCLINATION": 98.6471, "RA_OF_ASC_NODE": 104.1568, "ARG_OF_PERICENTER": 354.2442, "MEAN_ANOMALY": 5.8346, "EPHEMERIS_TYPE": 0, "CLASSIFICATION_TYPE": "U", "NORAD_CAT_ID": 30316, "ELEMENT_SET_NO": 999, "REV_AT_EPOCH": 98547, "BSTAR": 0.0023014, "MEAN_MOTION_DOT": 0.00010245, "MEAN_MOTION_DDOT": 0}, "tle": {"line1": "1 30316U 99025AAD 25361.21581948  .00010245  00000+0  23014-2 0  9996", "line2": "2 30316  98.6471 104.1568 0035184 354.2442   5.8346 14.56322214985479"}}, "geometry": {"type": "Point", "coordinates": [117.08538015050917, -54.302091159539856]}}, {"type": "Feature", "properties": {"norad_id": 30317, "name": "FENGYUN 1C DEB", "group": "fengyun-1c-debris", "lat": 77.7004222476316, "lon": -43.25190208929669, "alt_km": 877.9128585630433, "timestamp": "2025-12-27T21:25:02.789590+00:00", "meta": {"OBJECT_NAME": "FENGYUN 1C DEB", "OBJECT_ID": "1999-025AAE", "EPOCH": "2025-12-27T10:47:23.681760", "MEAN_MOTION": 14.06955097, "ECCENTRICITY": 0.0024312, "INCLINATION": 98.7868, "RA_OF_ASC_NODE": 1.5043, "ARG_OF_PERICENTER": 233.6948, "MEAN_ANOMALY": 126.1976, "EPHEMERIS_TYPE": 0, "CLASSIFICATION_TYPE": "U", "NORAD_CAT_ID": 30317, "ELEMENT_SET_NO": 999, "REV_AT_EPOCH": 97220, "BSTAR": 0.00020348, "MEAN_MOTION_DOT": 2.97e-06, "MEAN_MOTION_DDOT": 0}, "tle": {"line1": "1 30317U 99025AAE 25361.44957965  .00000297  00000+0  20348-3 0  9992", "line2": "2 30317  98.7868   1.5043 0024312 233.6948 126.1976 14.06955097972200"}}, "geometry": {"type": "Point", "coordinates": [-43.25190208929669, 77.7004222476316]}}]}